IRIDIUM 119             
1 42959U 17061E   24273.79146647  .00000045  00000+0  91812-5 0  9990
2 42959  86.3912 286.5844 0002003  98.7020 261.4403 14.34217238365175
IRIDIUM 107             
1 42960U 17061F   24273.74072627 -.00000082  00000+0 -36402-4 0  9999
2 42960  86.3911 286.6230 0002058 100.1641 259.9787 14.34216757365175
IRIDIUM 132             
1 42961U 17061G   24273.74706449  .00000233  00000+0  75962-4 0  9996
2 42961  86.3911 286.6043 0002279 101.4377 258.7075 14.34220005365171
IRIDIUM 136             
1 42962U 17061H   24273.77877986  .00000135  00000+0  41287-4 0  9999
2 42962  86.3913 286.5947 0002158  91.8904 268.2539 14.34216996365197
IRIDIUM 139             
1 42963U 17061J   24273.78512430 -.00000123  00000+0 -50875-4 0  9993
2 42963  86.3911 286.6436 0002095 102.2815 257.8616 14.34216662365200
IRIDIUM 125             
1 42964U 17061K   24273.77243739  .00000186  00000+0  59422-4 0  9990
2 42964  86.3915 286.6986 0001742 102.6916 257.4474 14.34217807365210
IRIDIUM 135             
1 43070U 17083A   24273.81632513  .00001035  00000+0  36246-3 0  9992
2 43070  86.3988 223.3231 0002713  81.4483 278.7020 14.34221195354511
IRIDIUM 138             
1 43071U 17083B   24273.70216179  .00001596  00000+0  56261-3 0  9998
2 43071  86.3981 223.0754 0001937  78.8619 281.2795 14.34216848354483
